start=new Date('2022-08-28T00:00:00.000Z').valueOf();
sats=[{"DECAY_DATE":null,"APOAPSIS":"340.593","MEAN_MOTION_DOT":"0.00010937","OBJECT_TYPE":"PAYLOAD","RCS_SIZE":"LARGE","CLASSIFICATION_TYPE":"U","GP_ID":"211137565","MEAN_MOTION":"15.76717514","RA_OF_ASC_NODE":"185.4977","ECCENTRICITY":"0.00012540","EPOCH":"2022-08-27T22:00:00.999936","TLE_LINE2":"2 50162  53.2011 185.4977 0001254  55.5642  43.8360 15.76717514  1300","SITE":"AFWTR","TIME_SYSTEM":"UTC","SEMIMAJOR_AXIS":"6717.885","MEAN_ELEMENT_THEORY":"SGP4","ELEMENT_SET_NO":"999","LAUNCH_DATE":"2021-12-18","REV_AT_EPOCH":"130","FILE":"3548882","EPHEMERIS_TYPE":"0","NORAD_CAT_ID":"50162","CENTER_NAME":"EARTH","TLE_LINE1":"1 50162U 21125G   22239.91667824  .00010937  00000-0  70770-4 0  9991","OBJECT_NAME":"STARLINK-3303","BSTAR":"0.00007077000000","ARG_OF_PERICENTER":"55.5642","PERIOD":"91.329","OBJECT_ID":"2021-125G","COUNTRY_CODE":"US","MEAN_MOTION_DDOT":"0.0000000000000","MEAN_ANOMALY":"43.8360","PERIAPSIS":"338.908","REF_FRAME":"TEME","INCLINATION":"53.2011"},{"INCLINATION":"53.2168","REF_FRAME":"TEME","MEAN_ANOMALY":"310.9048","PERIAPSIS":"538.599","MEAN_MOTION_DDOT":"0.0000000000000","COUNTRY_CODE":"US","ARG_OF_PERICENTER":"49.2088","PERIOD":"95.438","OBJECT_ID":"2021-125H","BSTAR":"-0.00005480800000","TLE_LINE1":"1 50163U 21125H   22239.59823985 -.00001160  00000-0 -54808-4 0  9992","OBJECT_NAME":"STARLINK-3306","CENTER_NAME":"EARTH","FILE":"3548882","REV_AT_EPOCH":"4197","EPHEMERIS_TYPE":"0","NORAD_CAT_ID":"50163","ELEMENT_SET_NO":"999","LAUNCH_DATE":"2021-12-18","MEAN_ELEMENT_THEORY":"SGP4","SEMIMAJOR_AXIS":"6917.883","SITE":"AFWTR","TIME_SYSTEM":"UTC","EPOCH":"2022-08-27T14:21:27.923040","TLE_LINE2":"2 50163  53.2168 270.5600 0001661  49.2088 310.9048 15.08839119 41978","ECCENTRICITY":"0.00016610","RA_OF_ASC_NODE":"270.5600","MEAN_MOTION":"15.08839119","CLASSIFICATION_TYPE":"U","GP_ID":"211136351","RCS_SIZE":"LARGE","OBJECT_TYPE":"PAYLOAD","APOAPSIS":"540.897","MEAN_MOTION_DOT":"-0.00001160","DECAY_DATE":null},{"BSTAR":"0.00000078404000","OBJECT_NAME":"STARLINK-3298","TLE_LINE1":"1 50165U 21125K   22239.86408222 -.00000276  00000-0  78404-6 0  9993","CENTER_NAME":"EARTH","REF_FRAME":"TEME","INCLINATION":"53.2170","PERIAPSIS":"538.516","MEAN_ANOMALY":"305.0419","ARG_OF_PERICENTER":"55.0739","PERIOD":"95.437","OBJECT_ID":"2021-125K","MEAN_MOTION_DDOT":"0.0000000000000","COUNTRY_CODE":"US","RA_OF_ASC_NODE":"289.3834","ECCENTRICITY":"0.00017620","MEAN_MOTION":"15.08843323","RCS_SIZE":"LARGE","OBJECT_TYPE":"PAYLOAD","GP_ID":"211136601","CLASSIFICATION_TYPE":"U","DECAY_DATE":null,"MEAN_MOTION_DOT":"-0.00000276","APOAPSIS":"540.954","LAUNCH_DATE":"2021-12-18","ELEMENT_SET_NO":"999","NORAD_CAT_ID":"50165","EPHEMERIS_TYPE":"0","FILE":"3548882","REV_AT_EPOCH":"4178","TIME_SYSTEM":"UTC","SITE":"AFWTR","SEMIMAJOR_AXIS":"6917.870","MEAN_ELEMENT_THEORY":"SGP4","TLE_LINE2":"2 50165  53.2170 289.3834 0001762  55.0739 305.0419 15.08843323 41788","EPOCH":"2022-08-27T20:44:16.703808"},{"PERIOD":"95.437","ARG_OF_PERICENTER":"46.0825","OBJECT_ID":"2021-125L","COUNTRY_CODE":"US","MEAN_MOTION_DDOT":"0.0000000000000","REF_FRAME":"TEME","INCLINATION":"53.2156","PERIAPSIS":"538.304","MEAN_ANOMALY":"314.0337","CENTER_NAME":"EARTH","BSTAR":"0.00024665000000","OBJECT_NAME":"STARLINK-3305","TLE_LINE1":"1 50166U 21125L   22239.48965076  .00003640  00000-0  24665-3 0  9991","TLE_LINE2":"2 50166  53.2156 281.0516 0002061  46.0825 314.0337 15.08845219 41817","EPOCH":"2022-08-27T11:45:05.825664","LAUNCH_DATE":"2021-12-18","ELEMENT_SET_NO":"999","NORAD_CAT_ID":"50166","FILE":"3548622","REV_AT_EPOCH":"4181","EPHEMERIS_TYPE":"0","TIME_SYSTEM":"UTC","SITE":"AFWTR","SEMIMAJOR_AXIS":"6917.864","MEAN_ELEMENT_THEORY":"SGP4","OBJECT_TYPE":"PAYLOAD","RCS_SIZE":"LARGE","CLASSIFICATION_TYPE":"U","GP_ID":"211104338","DECAY_DATE":null,"APOAPSIS":"541.155","MEAN_MOTION_DOT":"0.00003640","RA_OF_ASC_NODE":"281.0516","ECCENTRICITY":"0.00020610","MEAN_MOTION":"15.08845219"},{"PERIOD":"95.437","ARG_OF_PERICENTER":"61.5784","OBJECT_ID":"2021-125M","MEAN_MOTION_DDOT":"0.0000000000000","COUNTRY_CODE":"US","PERIAPSIS":"538.746","MEAN_ANOMALY":"298.5353","REF_FRAME":"TEME","INCLINATION":"53.2184","CENTER_NAME":"EARTH","OBJECT_NAME":"STARLINK-3271","TLE_LINE1":"1 50167U 21125M   22239.52551376  .00001308  00000-0  10026-3 0  9996","BSTAR":"0.00010026000000","TLE_LINE2":"2 50167  53.2184 290.9020 0001430  61.5784 298.5353 15.08843385 41684","EPOCH":"2022-08-27T12:36:44.388864","SITE":"AFWTR","SEMIMAJOR_AXIS":"6917.870","TIME_SYSTEM":"UTC","MEAN_ELEMENT_THEORY":"SGP4","LAUNCH_DATE":"2021-12-18","ELEMENT_SET_NO":"999","NORAD_CAT_ID":"50167","FILE":"3548882","EPHEMERIS_TYPE":"0","REV_AT_EPOCH":"4168","DECAY_DATE":null,"APOAPSIS":"540.724","MEAN_MOTION_DOT":"0.00001308","RCS_SIZE":"LARGE","OBJECT_TYPE":"PAYLOAD","GP_ID":"211138059","CLASSIFICATION_TYPE":"U","MEAN_MOTION":"15.08843385","RA_OF_ASC_NODE":"290.9020","ECCENTRICITY":"0.00014300"},{"MEAN_MOTION":"15.08835018","ECCENTRICITY":"0.00017710","RA_OF_ASC_NODE":"281.0685","APOAPSIS":"540.986","MEAN_MOTION_DOT":"0.00001930","DECAY_DATE":null,"GP_ID":"211105338","CLASSIFICATION_TYPE":"U","RCS_SIZE":"LARGE","OBJECT_TYPE":"PAYLOAD","MEAN_ELEMENT_THEORY":"SGP4","SEMIMAJOR_AXIS":"6917.896","SITE":"AFWTR","TIME_SYSTEM":"UTC","FILE":"3548622","EPHEMERIS_TYPE":"0","REV_AT_EPOCH":"4182","NORAD_CAT_ID":"50168","ELEMENT_SET_NO":"999","LAUNCH_DATE":"2021-12-18","EPOCH":"2022-08-27T11:39:48.163968","TLE_LINE2":"2 50168  53.2167 281.0685 0001771  47.7798 312.3344 15.08835018 41828","TLE_LINE1":"1 50168U 21125N   22239.48597412  .00001930  00000-0  13934-3 0  9995","OBJECT_NAME":"STARLINK-3296","BSTAR":"0.00013934000000","CENTER_NAME":"EARTH","MEAN_ANOMALY":"312.3344","PERIAPSIS":"538.535","INCLINATION":"53.2167","REF_FRAME":"TEME","COUNTRY_CODE":"US","MEAN_MOTION_DDOT":"0.0000000000000","ARG_OF_PERICENTER":"47.7798","PERIOD":"95.438","OBJECT_ID":"2021-125N"},{"RA_OF_ASC_NODE":"281.2173","ECCENTRICITY":"0.00018940","MEAN_MOTION":"15.08841417","OBJECT_TYPE":"PAYLOAD","RCS_SIZE":"LARGE","CLASSIFICATION_TYPE":"U","GP_ID":"211106086","DECAY_DATE":null,"APOAPSIS":"541.051","MEAN_MOTION_DOT":"-0.00000820","LAUNCH_DATE":"2021-12-18","ELEMENT_SET_NO":"999","NORAD_CAT_ID":"50169","FILE":"3548622","EPHEMERIS_TYPE":"0","REV_AT_EPOCH":"4182","SEMIMAJOR_AXIS":"6917.876","SITE":"AFWTR","TIME_SYSTEM":"UTC","MEAN_ELEMENT_THEORY":"SGP4","TLE_LINE2":"2 50169  53.2150 281.2173 0001894  50.3682 309.7477 15.08841417 41820","EPOCH":"2022-08-27T10:57:23.505984","BSTAR":"-0.00003342800000","OBJECT_NAME":"STARLINK-3301","TLE_LINE1":"1 50169U 21125P   22239.45652206 -.00000820  00000-0 -33428-4 0  9996","CENTER_NAME":"EARTH","REF_FRAME":"TEME","INCLINATION":"53.2150","MEAN_ANOMALY":"309.7477","PERIAPSIS":"538.431","ARG_OF_PERICENTER":"50.3682","PERIOD":"95.437","OBJECT_ID":"2021-125P","MEAN_MOTION_DDOT":"0.0000000000000","COUNTRY_CODE":"US"},{"ECCENTRICITY":"0.00017240","RA_OF_ASC_NODE":"281.3980","MEAN_MOTION":"15.08839036","CLASSIFICATION_TYPE":"U","GP_ID":"211104839","OBJECT_TYPE":"PAYLOAD","RCS_SIZE":"LARGE","APOAPSIS":"540.941","MEAN_MOTION_DOT":"-0.00001151","DECAY_DATE":null,"FILE":"3548622","EPHEMERIS_TYPE":"0","REV_AT_EPOCH":"4180","NORAD_CAT_ID":"50170","ELEMENT_SET_NO":"999","LAUNCH_DATE":"2021-12-18","MEAN_ELEMENT_THEORY":"SGP4","TIME_SYSTEM":"UTC","SITE":"AFWTR","SEMIMAJOR_AXIS":"6917.883","EPOCH":"2022-08-27T09:53:48.305760","TLE_LINE2":"2 50170  53.2172 281.3980 0001724  47.0910 313.0226 15.08839036 41804","BSTAR":"-0.00005421700000","TLE_LINE1":"1 50170U 21125Q   22239.41236465 -.00001151  00000-0 -54217-4 0  9996","OBJECT_NAME":"STARLINK-3245","CENTER_NAME":"EARTH","INCLINATION":"53.2172","REF_FRAME":"TEME","PERIAPSIS":"538.556","MEAN_ANOMALY":"313.0226","COUNTRY_CODE":"US","MEAN_MOTION_DDOT":"0.0000000000000","OBJECT_ID":"2021-125Q","PERIOD":"95.438","ARG_OF_PERICENTER":"47.0910"},{"TLE_LINE1":"1 50171U 21125R   22239.62580082  .00001051  00000-0  84106-4 0  9994","OBJECT_NAME":"STARLINK-3286","BSTAR":"0.00008410600000","CENTER_NAME":"EARTH","PERIAPSIS":"538.458","MEAN_ANOMALY":"311.4614","REF_FRAME":"TEME","INCLINATION":"53.2175","PERIOD":"95.438","OBJECT_ID":"2021-125R","ARG_OF_PERICENTER":"48.6538","MEAN_MOTION_DDOT":"0.0000000000000","COUNTRY_CODE":"US","MEAN_MOTION":"15.08839073","RA_OF_ASC_NODE":"280.4442","ECCENTRICITY":"0.00018650","DECAY_DATE":null,"APOAPSIS":"541.038","MEAN_MOTION_DOT":"0.00001051","RCS_SIZE":"LARGE","OBJECT_TYPE":"PAYLOAD","CLASSIFICATION_TYPE":"U","GP_ID":"211137566","SEMIMAJOR_AXIS":"6917.883","SITE":"AFWTR","TIME_SYSTEM":"UTC","MEAN_ELEMENT_THEORY":"SGP4","ELEMENT_SET_NO":"999","LAUNCH_DATE":"2021-12-18","FILE":"3548882","EPHEMERIS_TYPE":"0","REV_AT_EPOCH":"4184","NORAD_CAT_ID":"50171","EPOCH":"2022-08-27T15:01:09.190848","TLE_LINE2":"2 50171  53.2175 280.4442 0001865  48.6538 311.4614 15.08839073 41848"},{"DECAY_DATE":null,"APOAPSIS":"540.854","MEAN_MOTION_DOT":"0.00001103","RCS_SIZE":"LARGE","OBJECT_TYPE":"PAYLOAD","CLASSIFICATION_TYPE":"U","GP_ID":"211136352","MEAN_MOTION":"15.08845936","RA_OF_ASC_NODE":"280.8538","ECCENTRICITY":"0.00016290","TLE_LINE2":"2 50172  53.2160 280.8538 0001629  63.7135 296.4024 15.08845936 41866","EPOCH":"2022-08-27T12:53:57.983424","SITE":"AFWTR","SEMIMAJOR_AXIS":"6917.862","TIME_SYSTEM":"UTC","MEAN_ELEMENT_THEORY":"SGP4","LAUNCH_DATE":"2021-12-18","ELEMENT_SET_NO":"999","NORAD_CAT_ID":"50172","FILE":"3548882","EPHEMERIS_TYPE":"0","REV_AT_EPOCH":"4186","CENTER_NAME":"EARTH","OBJECT_NAME":"STARLINK-3287","TLE_LINE1":"1 50172U 21125S   22239.53747666  .00001103  00000-0  87389-4 0  9992","BSTAR":"0.00008738900000","PERIOD":"95.437","ARG_OF_PERICENTER":"63.7135","OBJECT_ID":"2021-125S","MEAN_MOTION_DDOT":"0.0000000000000","COUNTRY_CODE":"US","PERIAPSIS":"538.600","MEAN_ANOMALY":"296.4024","REF_FRAME":"TEME","INCLINATION":"53.2160"}];
